{
  "type": "FeatureCollection",
  "features": [
    {
      "type": "Feature",
      "geometry": {
        "type": "Polygon",
        "coordinates": [
          [
            [11.42894, 48.68044],
            [11.435673, 48.680037],
            [11.439041, 48.683246],
            [11.446986, 48.683225],
            [11.444832, 48.678626],
            [11.447761, 48.673489],
            [11.444357, 48.673133],
            [11.446778, 48.671329],
            [11.445162, 48.669062],
            [11.452388, 48.666376],
            [11.451672, 48.667602],
            [11.456699, 48.667264],
            [11.460104, 48.664259],
            [11.465586, 48.663422],
            [11.464912, 48.665157],
            [11.469951, 48.663744],
            [11.474986, 48.661392],
            [11.474339, 48.659863],
            [11.478059, 48.659585],
            [11.48235, 48.661685],
            [11.486534, 48.660584],
            [11.493686, 48.668457],
            [11.49534, 48.668417],
            [11.496256, 48.671813],
            [11.498421, 48.671603],
            [11.504948, 48.677803],
            [11.508416, 48.678575],
            [11.51104, 48.68265],
            [11.503053, 48.685047],
            [11.504639, 48.686882],
            [11.498223, 48.690573],
            [11.499061, 48.692255],
            [11.488538, 48.694028],
            [11.487979, 48.693148],
            [11.484786, 48.694668],
            [11.47705, 48.695077],
            [11.477546, 48.693954],
            [11.475552, 48.694007],
            [11.476111, 48.696182],
            [11.473906, 48.696512],
            [11.475138, 48.699748],
            [11.460275, 48.701657],
            [11.46023, 48.700368],
            [11.453584, 48.701466],
            [11.457062, 48.690044],
            [11.455472, 48.688589],
            [11.450882, 48.688197],
            [11.447861, 48.689604],
            [11.43398, 48.685905],
            [11.435919, 48.682338],
            [11.429257, 48.682372],
            [11.42894, 48.68044]
          ]
        ]
      },
      "properties": {
        "id": "relation/387301",
        "name": "Baar-Ebenhausen",
        "roadSumKm": 135,
        "bikelaneSumKm": 8,
        "bikeSharePct": 5.9259259259259265,
        "label": "Baar-Ebenhausen: 5.9 % Radinfra (an Straßen km)"
      }
    },
    {
      "type": "Feature",
      "geometry": {
        "type": "Polygon",
        "coordinates": [
          [
            [11.538468, 48.712122],
            [11.544094, 48.708988],
            [11.549808, 48.708357],
            [11.560059, 48.710041],
            [11.567202, 48.709275],
            [11.576005, 48.715514],
            [11.581174, 48.713773],
            [11.577051, 48.724046],
            [11.58366, 48.728559],
            [11.591386, 48.729887],
            [11.594996, 48.726503],
            [11.601668, 48.729517],
            [11.593687, 48.732152],
            [11.589038, 48.736214],
            [11.583712, 48.735298],
            [11.588386, 48.739918],
            [11.585507, 48.742375],
            [11.580492, 48.742994],
            [11.577067, 48.739409],
            [11.571066, 48.737973],
            [11.568708, 48.741582],
            [11.560172, 48.73654],
            [11.56556, 48.730714],
            [11.565201, 48.728849],
            [11.560504, 48.726807],
            [11.561826, 48.725271],
            [11.555275, 48.721458],
            [11.552953, 48.72438],
            [11.550184, 48.722931],
            [11.543155, 48.722722],
            [11.544414, 48.721117],
            [11.547742, 48.721377],
            [11.544106, 48.720615],
            [11.541947, 48.718069],
            [11.54334, 48.717194],
            [11.538468, 48.712122]
          ]
        ]
      },
      "properties": {
        "id": "relation/380993",
        "name": "Ernsgaden",
        "roadSumKm": 49,
        "bikelaneSumKm": 6,
        "bikeSharePct": 12.244897959183673,
        "label": "Ernsgaden: 12.2 % Radinfra (an Straßen km)"
      }
    },
    {
      "type": "Feature",
      "geometry": {
        "type": "Polygon",
        "coordinates": [
          [
            [11.538598, 48.694422],
            [11.543468, 48.686678],
            [11.54735, 48.684427],
            [11.54502, 48.683255],
            [11.545655, 48.681544],
            [11.549643, 48.68044],
            [11.543876, 48.679672],
            [11.544625, 48.668874],
            [11.547004, 48.663681],
            [11.541817, 48.659099],
            [11.545437, 48.65047],
            [11.542357, 48.646257],
            [11.548338, 48.64481],
            [11.555225, 48.639838],
            [11.572575, 48.647261],
            [11.578607, 48.647093],
            [11.580111, 48.643953],
            [11.585349, 48.643604],
            [11.588984, 48.653317],
            [11.592003, 48.655335],
            [11.593806, 48.654764],
            [11.595913, 48.658817],
            [11.602223, 48.660763],
            [11.609082, 48.665903],
            [11.611275, 48.664397],
            [11.60957, 48.66232],
            [11.626692, 48.659502],
            [11.627835, 48.663304],
            [11.636092, 48.659858],
            [11.638625, 48.656444],
            [11.648763, 48.655146],
            [11.65145, 48.64715],
            [11.648578, 48.643529],
            [11.655056, 48.643667],
            [11.655362, 48.638855],
            [11.666701, 48.637874],
            [11.672087, 48.632274],
            [11.683161, 48.632314],
            [11.691865, 48.630266],
            [11.693553, 48.633519],
            [11.697071, 48.633417],
            [11.699054, 48.634885],
            [11.70232, 48.633666],
            [11.707232, 48.639215],
            [11.704306, 48.64088],
            [11.712242, 48.64294],
            [11.713327, 48.647806],
            [11.711024, 48.650167],
            [11.707998, 48.649195],
            [11.70487, 48.650675],
            [11.705948, 48.654725],
            [11.701482, 48.657447],
            [11.702409, 48.658796],
            [11.697316, 48.659167],
            [11.685448, 48.663363],
            [11.691752, 48.670772],
            [11.690032, 48.6708],
            [11.68884, 48.673875],
            [11.689993, 48.673314],
            [11.695096, 48.67887],
            [11.693442, 48.679636],
            [11.690072, 48.677275],
            [11.688952, 48.679256],
            [11.695433, 48.683583],
            [11.685042, 48.687197],
            [11.680726, 48.691336],
            [11.675454, 48.688486],
            [11.653676, 48.700476],
            [11.656297, 48.701874],
            [11.654508, 48.702613],
            [11.656404, 48.703258],
            [11.656112, 48.705505],
            [11.654181, 48.70643],
            [11.656456, 48.709935],
            [11.660169, 48.711428],
            [11.659724, 48.713371],
            [11.66833, 48.717605],
            [11.668924, 48.720201],
            [11.662394, 48.721224],
            [11.651656, 48.727548],
            [11.641079, 48.731503],
            [11.636767, 48.738974],
            [11.636007, 48.744271],
            [11.638511, 48.746342],
            [11.63387, 48.746639],
            [11.633197, 48.748974],
            [11.626245, 48.747038],
            [11.617572, 48.742229],
            [11.616562, 48.740448],
            [11.619051, 48.740177],
            [11.615516, 48.735835],
            [11.600163, 48.730827],
            [11.599047, 48.730273],
            [11.601668, 48.729517],
            [11.594996, 48.726503],
            [11.591386, 48.729887],
            [11.58366, 48.728559],
            [11.577051, 48.724046],
            [11.581174, 48.713773],
            [11.576005, 48.715514],
            [11.567202, 48.709275],
            [11.555578, 48.709271],
            [11.552828, 48.704281],
            [11.549711, 48.70336],
            [11.547966, 48.704273],
            [11.540355, 48.698726],
            [11.538598, 48.694422]
          ]
        ]
      },
      "properties": {
        "id": "relation/380977",
        "name": "Geisenfeld",
        "roadSumKm": 343,
        "bikelaneSumKm": 37,
        "bikeSharePct": 10.787172011661808,
        "label": "Geisenfeld: 10.8 % Radinfra (an Straßen km)"
      }
    },
    {
      "type": "Feature",
      "geometry": {
        "type": "Polygon",
        "coordinates": [
          [
            [11.294995, 48.475203],
            [11.303562, 48.47434],
            [11.305072, 48.472268],
            [11.298429, 48.466345],
            [11.301362, 48.452798],
            [11.305046, 48.453259],
            [11.306476, 48.451706],
            [11.311522, 48.452461],
            [11.31322, 48.450625],
            [11.324737, 48.449585],
            [11.325884, 48.448185],
            [11.334157, 48.450727],
            [11.334515, 48.454426],
            [11.344667, 48.454961],
            [11.351388, 48.450968],
            [11.358144, 48.449849],
            [11.356917, 48.444431],
            [11.35973, 48.442967],
            [11.364148, 48.446629],
            [11.362653, 48.448061],
            [11.365971, 48.452774],
            [11.372053, 48.454278],
            [11.371706, 48.459879],
            [11.374738, 48.460149],
            [11.377505, 48.462684],
            [11.384996, 48.463],
            [11.380321, 48.464203],
            [11.38227, 48.466845],
            [11.388779, 48.462004],
            [11.386281, 48.459253],
            [11.391721, 48.460476],
            [11.394872, 48.45908],
            [11.390287, 48.456774],
            [11.391162, 48.455386],
            [11.404136, 48.455382],
            [11.408275, 48.453229],
            [11.410529, 48.4546],
            [11.407579, 48.457151],
            [11.408032, 48.459899],
            [11.417584, 48.461369],
            [11.418862, 48.463487],
            [11.407472, 48.470733],
            [11.409324, 48.477559],
            [11.407081, 48.480077],
            [11.407467, 48.484669],
            [11.402495, 48.486504],
            [11.398671, 48.492373],
            [11.404849, 48.495392],
            [11.405168, 48.497891],
            [11.402539, 48.500559],
            [11.405344, 48.501982],
            [11.403197, 48.501323],
            [11.404569, 48.502915],
            [11.402057, 48.501639],
            [11.398151, 48.506565],
            [11.392163, 48.505624],
            [11.387433, 48.508726],
            [11.387535, 48.509868],
            [11.391466, 48.509182],
            [11.388273, 48.512547],
            [11.387831, 48.519562],
            [11.390176, 48.527165],
            [11.386611, 48.53023],
            [11.387635, 48.534413],
            [11.383587, 48.534607],
            [11.382725, 48.536893],
            [11.378278, 48.53504],
            [11.364697, 48.542028],
            [11.355222, 48.538465],
            [11.353911, 48.539479],
            [11.344617, 48.53493],
            [11.341356, 48.535563],
            [11.341475, 48.53224],
            [11.337878, 48.531543],
            [11.339432, 48.527281],
            [11.331505, 48.525871],
            [11.333334, 48.524216],
            [11.330373, 48.523486],
            [11.330676, 48.521798],
            [11.323542, 48.521849],
            [11.324028, 48.51784],
            [11.31387, 48.516392],
            [11.318713, 48.505391],
            [11.32266, 48.50538],
            [11.325015, 48.502586],
            [11.320405, 48.501751],
            [11.317201, 48.504495],
            [11.311868, 48.503061],
            [11.311151, 48.50109],
            [11.314748, 48.500335],
            [11.31385, 48.49874],
            [11.316461, 48.496232],
            [11.31499, 48.494484],
            [11.318506, 48.49309],
            [11.314848, 48.484731],
            [11.303295, 48.482725],
            [11.300369, 48.483561],
            [11.294995, 48.475203]
          ]
        ]
      },
      "properties": {
        "id": "relation/391272",
        "name": "Gerolsbach",
        "roadSumKm": 241,
        "bikelaneSumKm": 33,
        "bikeSharePct": 13.692946058091287,
        "label": "Gerolsbach: 13.7 % Radinfra (an Straßen km)"
      }
    },
    {
      "type": "Feature",
      "geometry": {
        "type": "Polygon",
        "coordinates": [
          [
            [11.479185, 48.501094],
            [11.485356, 48.495968],
            [11.484822, 48.493784],
            [11.487602, 48.495043],
            [11.490318, 48.492729],
            [11.498844, 48.493511],
            [11.498238, 48.492264],
            [11.505425, 48.494222],
            [11.505355, 48.492695],
            [11.517732, 48.491207],
            [11.517843, 48.490002],
            [11.530082, 48.490133],
            [11.532099, 48.484888],
            [11.530783, 48.483825],
            [11.535533, 48.483128],
            [11.536213, 48.4844],
            [11.547341, 48.480847],
            [11.548855, 48.482477],
            [11.555677, 48.482956],
            [11.554866, 48.488079],
            [11.556441, 48.489824],
            [11.560128, 48.490838],
            [11.570046, 48.48991],
            [11.569976, 48.491226],
            [11.573596, 48.491775],
            [11.575255, 48.495011],
            [11.571734, 48.496511],
            [11.565564, 48.494742],
            [11.564304, 48.497722],
            [11.570637, 48.499805],
            [11.564544, 48.503501],
            [11.567422, 48.505613],
            [11.567463, 48.508575],
            [11.562086, 48.512128],
            [11.563604, 48.514193],
            [11.561601, 48.517017],
            [11.555949, 48.517933],
            [11.55373, 48.515728],
            [11.542022, 48.51727],
            [11.543255, 48.513465],
            [11.538423, 48.513342],
            [11.53502, 48.511358],
            [11.530283, 48.513029],
            [11.526551, 48.518651],
            [11.518031, 48.518899],
            [11.518034, 48.521322],
            [11.515388, 48.521791],
            [11.51211, 48.520922],
            [11.511495, 48.51921],
            [11.501631, 48.518642],
            [11.501622, 48.516793],
            [11.496485, 48.516703],
            [11.494179, 48.518185],
            [11.494803, 48.511482],
            [11.482733, 48.509152],
            [11.485116, 48.506308],
            [11.488844, 48.505522],
            [11.486105, 48.503904],
            [11.482082, 48.504753],
            [11.482303, 48.502517],
            [11.479185, 48.501094]
          ]
        ]
      },
      "properties": {
        "id": "relation/396551",
        "name": "Hettenshausen",
        "roadSumKm": 82,
        "bikelaneSumKm": 9,
        "bikeSharePct": 10.975609756097562,
        "label": "Hettenshausen: 11.0 % Radinfra (an Straßen km)"
      }
    },
    {
      "type": "Feature",
      "geometry": {
        "type": "Polygon",
        "coordinates": [
          [
            [11.336032, 48.570416],
            [11.342516, 48.559937],
            [11.350002, 48.552883],
            [11.358609, 48.548782],
            [11.364136, 48.542318],
            [11.378278, 48.53504],
            [11.382725, 48.536893],
            [11.385418, 48.534979],
            [11.387656, 48.536359],
            [11.38984, 48.535002],
            [11.393789, 48.535699],
            [11.394815, 48.538303],
            [11.397944, 48.539387],
            [11.395954, 48.541447],
            [11.390906, 48.540225],
            [11.390517, 48.54313],
            [11.394221, 48.544641],
            [11.390721, 48.544715],
            [11.390076, 48.546187],
            [11.393311, 48.547268],
            [11.401022, 48.544748],
            [11.402862, 48.546497],
            [11.40247, 48.54794],
            [11.398405, 48.549131],
            [11.395627, 48.548469],
            [11.396818, 48.552251],
            [11.394411, 48.550125],
            [11.391527, 48.550067],
            [11.385699, 48.553709],
            [11.387879, 48.559164],
            [11.385617, 48.55914],
            [11.385799, 48.560387],
            [11.38876, 48.561504],
            [11.388995, 48.563689],
            [11.400361, 48.566088],
            [11.400868, 48.567602],
            [11.409202, 48.56815],
            [11.408746, 48.570682],
            [11.411969, 48.570832],
            [11.410624, 48.573649],
            [11.413463, 48.575764],
            [11.418271, 48.575942],
            [11.421317, 48.578285],
            [11.42207, 48.577163],
            [11.425381, 48.578023],
            [11.431259, 48.574212],
            [11.436379, 48.576043],
            [11.435331, 48.577947],
            [11.437274, 48.578029],
            [11.437872, 48.580962],
            [11.444812, 48.582391],
            [11.446724, 48.584843],
            [11.449799, 48.58383],
            [11.450001, 48.585971],
            [11.454782, 48.585405],
            [11.458615, 48.586708],
            [11.458328, 48.591903],
            [11.455542, 48.591895],
            [11.453436, 48.598138],
            [11.445723, 48.605921],
            [11.436507, 48.60345],
            [11.434507, 48.605452],
            [11.431021, 48.604096],
            [11.430629, 48.606634],
            [11.429299, 48.606076],
            [11.426969, 48.608076],
            [11.428686, 48.609812],
            [11.425595, 48.613957],
            [11.432208, 48.617132],
            [11.431885, 48.619521],
            [11.434545, 48.617523],
            [11.43672, 48.618868],
            [11.443952, 48.618578],
            [11.442832, 48.620323],
            [11.445337, 48.624053],
            [11.451783, 48.629295],
            [11.448559, 48.631275],
            [11.446332, 48.629673],
            [11.442337, 48.630985],
            [11.440771, 48.634183],
            [11.437679, 48.633459],
            [11.437034, 48.635628],
            [11.427446, 48.643006],
            [11.403864, 48.642649],
            [11.403494, 48.640852],
            [11.397958, 48.640945],
            [11.399191, 48.636316],
            [11.400654, 48.637139],
            [11.402746, 48.635681],
            [11.390223, 48.635831],
            [11.387308, 48.633374],
            [11.383376, 48.634036],
            [11.38193, 48.629412],
            [11.377672, 48.629344],
            [11.378039, 48.626676],
            [11.373776, 48.623538],
            [11.376004, 48.622676],
            [11.373546, 48.619576],
            [11.37449, 48.618059],
            [11.377253, 48.618005],
            [11.378054, 48.614998],
            [11.372681, 48.616651],
            [11.361273, 48.614824],
            [11.349604, 48.609972],
            [11.345291, 48.606438],
            [11.348589, 48.599666],
            [11.361514, 48.597928],
            [11.364002, 48.594298],
            [11.367197, 48.594034],
            [11.36354, 48.588876],
            [11.366013, 48.588953],
            [11.368302, 48.591754],
            [11.375288, 48.590976],
            [11.37886, 48.585071],
            [11.384554, 48.585986],
            [11.383537, 48.580655],
            [11.37614, 48.580652],
            [11.375044, 48.577076],
            [11.371976, 48.57684],
            [11.378773, 48.566263],
            [11.382127, 48.56442],
            [11.38113, 48.562525],
            [11.371796, 48.564892],
            [11.372557, 48.567089],
            [11.364239, 48.572146],
            [11.357912, 48.57197],
            [11.357925, 48.570468],
            [11.35432, 48.576848],
            [11.351261, 48.575366],
            [11.34972, 48.576764],
            [11.343863, 48.577164],
            [11.340578, 48.574677],
            [11.34176, 48.57332],
            [11.336032, 48.570416]
          ]
        ]
      },
      "properties": {
        "id": "relation/391269",
        "name": "Hohenwart",
        "roadSumKm": 232,
        "bikelaneSumKm": 6,
        "bikeSharePct": 2.586206896551724,
        "label": "Hohenwart: 2.6 % Radinfra (an Straßen km)"
      }
    },
    {
      "type": "Feature",
      "geometry": {
        "type": "Polygon",
        "coordinates": [
          [
            [11.455564, 48.480882],
            [11.456948, 48.476227],
            [11.468503, 48.474123],
            [11.476731, 48.471725],
            [11.476026, 48.470772],
            [11.486651, 48.470162],
            [11.493261, 48.468048],
            [11.495817, 48.472453],
            [11.503226, 48.47322],
            [11.503333, 48.474214],
            [11.506232, 48.472555],
            [11.50831, 48.473755],
            [11.510815, 48.472225],
            [11.515874, 48.472325],
            [11.525707, 48.467941],
            [11.535589, 48.469286],
            [11.535264, 48.471566],
            [11.54452, 48.472505],
            [11.544196, 48.476455],
            [11.549491, 48.47924],
            [11.54883, 48.481398],
            [11.547262, 48.480859],
            [11.544572, 48.48265],
            [11.536213, 48.4844],
            [11.535533, 48.483128],
            [11.530783, 48.483825],
            [11.532099, 48.484888],
            [11.530082, 48.490133],
            [11.517843, 48.490002],
            [11.517732, 48.491207],
            [11.505355, 48.492695],
            [11.504173, 48.494315],
            [11.500977, 48.492375],
            [11.498238, 48.492264],
            [11.498844, 48.493511],
            [11.491999, 48.49242],
            [11.487602, 48.495043],
            [11.484822, 48.493784],
            [11.484759, 48.495071],
            [11.479483, 48.495579],
            [11.471331, 48.494813],
            [11.472062, 48.493352],
            [11.469153, 48.491378],
            [11.462403, 48.490488],
            [11.45755, 48.485875],
            [11.455564, 48.480882]
          ]
        ]
      },
      "properties": {
        "id": "relation/396550",
        "name": "Ilmmünster",
        "roadSumKm": 63,
        "bikelaneSumKm": 4,
        "bikeSharePct": 6.349206349206349,
        "label": "Ilmmünster: 6.3 % Radinfra (an Straßen km)"
      }
    },
    {
      "type": "Feature",
      "geometry": {
        "type": "Polygon",
        "coordinates": [
          [
            [11.361421, 48.445463],
            [11.361862, 48.442771],
            [11.363997, 48.442693],
            [11.365011, 48.440768],
            [11.370782, 48.441377],
            [11.371904, 48.439419],
            [11.377609, 48.441079],
            [11.389448, 48.434694],
            [11.387763, 48.434262],
            [11.388438, 48.430979],
            [11.38083, 48.4307],
            [11.382183, 48.428261],
            [11.380805, 48.424062],
            [11.384328, 48.423995],
            [11.386531, 48.421892],
            [11.392499, 48.423997],
            [11.398165, 48.422508],
            [11.396699, 48.426973],
            [11.399886, 48.427884],
            [11.400711, 48.424016],
            [11.404483, 48.423979],
            [11.406693, 48.421151],
            [11.405071, 48.418619],
            [11.402024, 48.419318],
            [11.402268, 48.412649],
            [11.407652, 48.412803],
            [11.413296, 48.406294],
            [11.41632, 48.406387],
            [11.417139, 48.410024],
            [11.421031, 48.409618],
            [11.421106, 48.411496],
            [11.424525, 48.411282],
            [11.428038, 48.417018],
            [11.443678, 48.413615],
            [11.440242, 48.415671],
            [11.440437, 48.419063],
            [11.437152, 48.419607],
            [11.436839, 48.423121],
            [11.439534, 48.423864],
            [11.438938, 48.425876],
            [11.436529, 48.426367],
            [11.439121, 48.428363],
            [11.443611, 48.428601],
            [11.445069, 48.431778],
            [11.449713, 48.432589],
            [11.44545, 48.433902],
            [11.440803, 48.440226],
            [11.437575, 48.440921],
            [11.436926, 48.445614],
            [11.432905, 48.444726],
            [11.432779, 48.442948],
            [11.431156, 48.444772],
            [11.428173, 48.444772],
            [11.427102, 48.442305],
            [11.41571, 48.446838],
            [11.423666, 48.45122],
            [11.427301, 48.449972],
            [11.428107, 48.452744],
            [11.43162, 48.454246],
            [11.437576, 48.452879],
            [11.438094, 48.460765],
            [11.432811, 48.460143],
            [11.426146, 48.463352],
            [11.423796, 48.462183],
            [11.418862, 48.463487],
            [11.417584, 48.461369],
            [11.408032, 48.459899],
            [11.407579, 48.457151],
            [11.410529, 48.4546],
            [11.408275, 48.453229],
            [11.404136, 48.455382],
            [11.391162, 48.455386],
            [11.390287, 48.456774],
            [11.394872, 48.45908],
            [11.391721, 48.460476],
            [11.386281, 48.459253],
            [11.388779, 48.462004],
            [11.38227, 48.466845],
            [11.380321, 48.464203],
            [11.384996, 48.463],
            [11.377505, 48.462684],
            [11.374738, 48.460149],
            [11.371706, 48.459879],
            [11.372053, 48.454278],
            [11.365971, 48.452774],
            [11.362653, 48.448061],
            [11.364148, 48.446629],
            [11.361421, 48.445463]
          ]
        ]
      },
      "properties": {
        "id": "relation/393071",
        "name": "Jetzendorf",
        "roadSumKm": 119,
        "bikelaneSumKm": 8,
        "bikeSharePct": 6.722689075630252,
        "label": "Jetzendorf: 6.7 % Radinfra (an Straßen km)"
      }
    },
    {
      "type": "Feature",
      "geometry": {
        "type": "Polygon",
        "coordinates": [
          [
            [11.430341, 48.705088],
            [11.430455, 48.703355],
            [11.434182, 48.701987],
            [11.433239, 48.699199],
            [11.435911, 48.698923],
            [11.435518, 48.697036],
            [11.437559, 48.697434],
            [11.4388, 48.696072],
            [11.447042, 48.700683],
            [11.442272, 48.70287],
            [11.445149, 48.705175],
            [11.45418, 48.698026],
            [11.453584, 48.701466],
            [11.46023, 48.700368],
            [11.460275, 48.701657],
            [11.463595, 48.701685],
            [11.475138, 48.699748],
            [11.473906, 48.696512],
            [11.476111, 48.696182],
            [11.475552, 48.694007],
            [11.478261, 48.695125],
            [11.493251, 48.692599],
            [11.496082, 48.693326],
            [11.499424, 48.692087],
            [11.498223, 48.690573],
            [11.501208, 48.689858],
            [11.500108, 48.689179],
            [11.503622, 48.688584],
            [11.504781, 48.686339],
            [11.503053, 48.685047],
            [11.510479, 48.682948],
            [11.51349, 48.684714],
            [11.513564, 48.688111],
            [11.519552, 48.697847],
            [11.530273, 48.696921],
            [11.534187, 48.699244],
            [11.539661, 48.696745],
            [11.547966, 48.704273],
            [11.549711, 48.70336],
            [11.552736, 48.704233],
            [11.55469, 48.706389],
            [11.552236, 48.709124],
            [11.544094, 48.708988],
            [11.538468, 48.712122],
            [11.54334, 48.717194],
            [11.541947, 48.718069],
            [11.544106, 48.720615],
            [11.547742, 48.721377],
            [11.544414, 48.721117],
            [11.543155, 48.722722],
            [11.550184, 48.722931],
            [11.552953, 48.72438],
            [11.555275, 48.721458],
            [11.561826, 48.725271],
            [11.560504, 48.726807],
            [11.565201, 48.728849],
            [11.56528, 48.73201],
            [11.563117, 48.731889],
            [11.560172, 48.73654],
            [11.564392, 48.740004],
            [11.559635, 48.741224],
            [11.562832, 48.745027],
            [11.561556, 48.743649],
            [11.558533, 48.743968],
            [11.559331, 48.747477],
            [11.555218, 48.7473],
            [11.553814, 48.74184],
            [11.550389, 48.74116],
            [11.546619, 48.744353],
            [11.550472, 48.747257],
            [11.548354, 48.749775],
            [11.544389, 48.750578],
            [11.543924, 48.74543],
            [11.540638, 48.745425],
            [11.540458, 48.748162],
            [11.536825, 48.74786],
            [11.534493, 48.744171],
            [11.537459, 48.738861],
            [11.532471, 48.734137],
            [11.526938, 48.732722],
            [11.521805, 48.732952],
            [11.521641, 48.734729],
            [11.515425, 48.732963],
            [11.513702, 48.734479],
            [11.510563, 48.732941],
            [11.503445, 48.734175],
            [11.500325, 48.736721],
            [11.496392, 48.736764],
            [11.489193, 48.745124],
            [11.486423, 48.741808],
            [11.491784, 48.736284],
            [11.487508, 48.733561],
            [11.486878, 48.727884],
            [11.454078, 48.727924],
            [11.45407, 48.724693],
            [11.449862, 48.725033],
            [11.445939, 48.723498],
            [11.44647, 48.720908],
            [11.440473, 48.720889],
            [11.438902, 48.715986],
            [11.435556, 48.714412],
            [11.436183, 48.712085],
            [11.432732, 48.711136],
            [11.433869, 48.708942],
            [11.430377, 48.707983],
            [11.433819, 48.705002],
            [11.430341, 48.705088]
          ]
        ]
      },
      "properties": {
        "id": "relation/387285",
        "name": "Manching",
        "roadSumKm": 289,
        "bikelaneSumKm": 34,
        "bikeSharePct": 11.76470588235294,
        "label": "Manching: 11.8 % Radinfra (an Straßen km)"
      }
    },
    {
      "type": "Feature",
      "geometry": {
        "type": "Polygon",
        "coordinates": [
          [
            [11.635958, 48.758313],
            [11.644007, 48.755009],
            [11.643802, 48.752578],
            [11.64935, 48.746429],
            [11.647958, 48.744874],
            [11.652107, 48.745695],
            [11.650462, 48.743267],
            [11.652213, 48.742302],
            [11.668425, 48.749341],
            [11.690198, 48.752225],
            [11.702242, 48.752367],
            [11.715717, 48.755924],
            [11.710918, 48.761574],
            [11.700026, 48.76282],
            [11.702496, 48.765915],
            [11.698467, 48.773301],
            [11.699189, 48.77827],
            [11.69387, 48.782247],
            [11.695943, 48.785776],
            [11.698426, 48.784499],
            [11.708454, 48.784954],
            [11.710986, 48.778035],
            [11.715779, 48.781247],
            [11.719749, 48.780386],
            [11.719799, 48.782339],
            [11.715018, 48.785927],
            [11.71804, 48.786477],
            [11.717357, 48.788474],
            [11.711308, 48.787485],
            [11.711302, 48.789057],
            [11.707965, 48.788234],
            [11.707874, 48.789664],
            [11.704358, 48.789477],
            [11.695522, 48.793146],
            [11.697757, 48.789413],
            [11.69193, 48.789423],
            [11.692973, 48.787651],
            [11.689559, 48.781903],
            [11.68695, 48.781399],
            [11.680553, 48.783497],
            [11.676829, 48.782169],
            [11.676482, 48.780218],
            [11.680453, 48.777039],
            [11.678126, 48.774909],
            [11.670849, 48.774305],
            [11.670225, 48.778689],
            [11.659511, 48.779387],
            [11.650592, 48.775821],
            [11.64815, 48.770306],
            [11.639876, 48.770082],
            [11.641624, 48.765124],
            [11.638983, 48.763916],
            [11.639852, 48.760972],
            [11.635958, 48.758313]
          ]
        ]
      },
      "properties": {
        "id": "relation/380979",
        "name": "Münchsmünster",
        "roadSumKm": 123,
        "bikelaneSumKm": 18,
        "bikeSharePct": 14.634146341463413,
        "label": "Münchsmünster: 14.6 % Radinfra (an Straßen km)"
      }
    },
    {
      "type": "Feature",
      "geometry": {
        "type": "Polygon",
        "coordinates": [
          [
            [11.38556, 48.559287],
            [11.387879, 48.559164],
            [11.385869, 48.555765],
            [11.386998, 48.552585],
            [11.392327, 48.54999],
            [11.396818, 48.552251],
            [11.395627, 48.548469],
            [11.40247, 48.54794],
            [11.401137, 48.544753],
            [11.393311, 48.547268],
            [11.390033, 48.546093],
            [11.390721, 48.544715],
            [11.394221, 48.544641],
            [11.390517, 48.54313],
            [11.390906, 48.540225],
            [11.395954, 48.541447],
            [11.399757, 48.537932],
            [11.397326, 48.536653],
            [11.397593, 48.534137],
            [11.402523, 48.534988],
            [11.39956, 48.531644],
            [11.401014, 48.530291],
            [11.405558, 48.535009],
            [11.409811, 48.533162],
            [11.409476, 48.5317],
            [11.412534, 48.532218],
            [11.421961, 48.530079],
            [11.431937, 48.533061],
            [11.434882, 48.529367],
            [11.439807, 48.529809],
            [11.441996, 48.527055],
            [11.443616, 48.527698],
            [11.44562, 48.525463],
            [11.450425, 48.524543],
            [11.453168, 48.52539],
            [11.453884, 48.52809],
            [11.458072, 48.52865],
            [11.457044, 48.529688],
            [11.459015, 48.530135],
            [11.459946, 48.526989],
            [11.464949, 48.522671],
            [11.470182, 48.523204],
            [11.471861, 48.524969],
            [11.474828, 48.521449],
            [11.478151, 48.52199],
            [11.4789, 48.518424],
            [11.47407, 48.517626],
            [11.479361, 48.508142],
            [11.494803, 48.511482],
            [11.494209, 48.518197],
            [11.496485, 48.516703],
            [11.501622, 48.516793],
            [11.501631, 48.518642],
            [11.511495, 48.51921],
            [11.515084, 48.521801],
            [11.518034, 48.521322],
            [11.518031, 48.518899],
            [11.526551, 48.518651],
            [11.530283, 48.513029],
            [11.53502, 48.511358],
            [11.538423, 48.513342],
            [11.543255, 48.513465],
            [11.542022, 48.51727],
            [11.55373, 48.515728],
            [11.555949, 48.517933],
            [11.561601, 48.517017],
            [11.562825, 48.511734],
            [11.570106, 48.510455],
            [11.565494, 48.513625],
            [11.56633, 48.515769],
            [11.575827, 48.514602],
            [11.572893, 48.518347],
            [11.575397, 48.521764],
            [11.583609, 48.529113],
            [11.588223, 48.529214],
            [11.586315, 48.534178],
            [11.582104, 48.534062],
            [11.579703, 48.535623],
            [11.580415, 48.537937],
            [11.578306, 48.537667],
            [11.575929, 48.54503],
            [11.571599, 48.545396],
            [11.575329, 48.546868],
            [11.573437, 48.549259],
            [11.581067, 48.549801],
            [11.58066, 48.550852],
            [11.575553, 48.550519],
            [11.575225, 48.552086],
            [11.57178, 48.551749],
            [11.571981, 48.550663],
            [11.564585, 48.550592],
            [11.566731, 48.554817],
            [11.570468, 48.556796],
            [11.578006, 48.555333],
            [11.58302, 48.558251],
            [11.584976, 48.564733],
            [11.579861, 48.565124],
            [11.576908, 48.568108],
            [11.576157, 48.566649],
            [11.573604, 48.567389],
            [11.574331, 48.569101],
            [11.566133, 48.572729],
            [11.56814, 48.57518],
            [11.565171, 48.573292],
            [11.54895, 48.579596],
            [11.547104, 48.58178],
            [11.549442, 48.581828],
            [11.548263, 48.584129],
            [11.551621, 48.585297],
            [11.544366, 48.585562],
            [11.543623, 48.583714],
            [11.542161, 48.585805],
            [11.537773, 48.586241],
            [11.536094, 48.592172],
            [11.530312, 48.591688],
            [11.527161, 48.594536],
            [11.52479, 48.594051],
            [11.524846, 48.592468],
            [11.51795, 48.591998],
            [11.517995, 48.594242],
            [11.513175, 48.594897],
            [11.510267, 48.593667],
            [11.505128, 48.594952],
            [11.503461, 48.592832],
            [11.498048, 48.594135],
            [11.497348, 48.592154],
            [11.492707, 48.592652],
            [11.491607, 48.585995],
            [11.490098, 48.586284],
            [11.488573, 48.583639],
            [11.485488, 48.586107],
            [11.482468, 48.586107],
            [11.480963, 48.581768],
            [11.478877, 48.583764],
            [11.472751, 48.58449],
            [11.472213, 48.58802],
            [11.471102, 48.585826],
            [11.463082, 48.589181],
            [11.456567, 48.585637],
            [11.450001, 48.585971],
            [11.449799, 48.58383],
            [11.446724, 48.584843],
            [11.444812, 48.582391],
            [11.437872, 48.580962],
            [11.437274, 48.578029],
            [11.435331, 48.577947],
            [11.436379, 48.576043],
            [11.431259, 48.574212],
            [11.425381, 48.578023],
            [11.42207, 48.577163],
            [11.421317, 48.578285],
            [11.418271, 48.575942],
            [11.413463, 48.575764],
            [11.410624, 48.573649],
            [11.411969, 48.570832],
            [11.408746, 48.570682],
            [11.409202, 48.56815],
            [11.400868, 48.567602],
            [11.400361, 48.566088],
            [11.388995, 48.563689],
            [11.38556, 48.559287]
          ]
        ]
      },
      "properties": {
        "id": "relation/396556",
        "name": "Pfaffenhofen an der Ilm",
        "roadSumKm": 542,
        "bikelaneSumKm": 48,
        "bikeSharePct": 8.856088560885608,
        "label": "Pfaffenhofen an der Ilm: 8.9 % Radinfra (an Straßen km)"
      }
    },
    {
      "type": "Feature",
      "geometry": {
        "type": "Polygon",
        "coordinates": [
          [
            [11.425595, 48.613957],
            [11.428686, 48.609812],
            [11.426969, 48.608076],
            [11.429299, 48.606076],
            [11.430629, 48.606634],
            [11.431021, 48.604096],
            [11.434507, 48.605452],
            [11.436507, 48.60345],
            [11.445723, 48.605921],
            [11.453436, 48.598138],
            [11.455542, 48.591895],
            [11.458328, 48.591903],
            [11.458565, 48.587171],
            [11.461276, 48.587202],
            [11.463082, 48.589181],
            [11.471102, 48.585826],
            [11.472213, 48.58802],
            [11.472751, 48.58449],
            [11.478877, 48.583764],
            [11.480963, 48.581768],
            [11.482468, 48.586107],
            [11.485488, 48.586107],
            [11.488573, 48.583639],
            [11.490098, 48.586284],
            [11.491607, 48.585995],
            [11.493083, 48.593468],
            [11.499522, 48.596954],
            [11.494073, 48.59943],
            [11.496535, 48.601894],
            [11.490769, 48.602279],
            [11.490211, 48.603386],
            [11.492433, 48.603975],
            [11.490532, 48.606235],
            [11.495007, 48.605586],
            [11.494172, 48.607656],
            [11.49907, 48.608564],
            [11.496818, 48.611574],
            [11.502887, 48.61328],
            [11.502527, 48.619628],
            [11.508773, 48.625468],
            [11.501186, 48.631246],
            [11.502137, 48.632611],
            [11.496425, 48.632681],
            [11.497197, 48.634933],
            [11.48877, 48.640957],
            [11.47823, 48.637419],
            [11.474292, 48.640196],
            [11.477379, 48.642609],
            [11.473895, 48.64419],
            [11.47097, 48.641647],
            [11.46701, 48.642671],
            [11.457593, 48.633773],
            [11.456905, 48.631044],
            [11.453305, 48.629031],
            [11.452488, 48.629903],
            [11.445337, 48.624053],
            [11.442832, 48.620323],
            [11.444103, 48.618667],
            [11.43672, 48.618868],
            [11.434545, 48.617523],
            [11.431885, 48.619521],
            [11.432208, 48.617132],
            [11.425595, 48.613957]
          ]
        ]
      },
      "properties": {
        "id": "relation/387306",
        "name": "Pörnbach",
        "roadSumKm": 91,
        "bikelaneSumKm": 3,
        "bikeSharePct": 3.296703296703297,
        "label": "Pörnbach: 3.3 % Radinfra (an Straßen km)"
      }
    },
    {
      "type": "Feature",
      "geometry": {
        "type": "Polygon",
        "coordinates": [
          [
            [11.41571, 48.446838],
            [11.427102, 48.442305],
            [11.428173, 48.444772],
            [11.431156, 48.444772],
            [11.432779, 48.442948],
            [11.432905, 48.444726],
            [11.436926, 48.445614],
            [11.437575, 48.440921],
            [11.440803, 48.440226],
            [11.44545, 48.433902],
            [11.449713, 48.432589],
            [11.459247, 48.433158],
            [11.473669, 48.440892],
            [11.479152, 48.438218],
            [11.482856, 48.438165],
            [11.487918, 48.44149],
            [11.493226, 48.440421],
            [11.495778, 48.441239],
            [11.498625, 48.4399],
            [11.50129, 48.440911],
            [11.500802, 48.442213],
            [11.508724, 48.441654],
            [11.509043, 48.444105],
            [11.512247, 48.445024],
            [11.51169, 48.447659],
            [11.517385, 48.448884],
            [11.51803, 48.452211],
            [11.533133, 48.456124],
            [11.532247, 48.458057],
            [11.535182, 48.460061],
            [11.53441, 48.463991],
            [11.52877, 48.468928],
            [11.523691, 48.468296],
            [11.515874, 48.472325],
            [11.510815, 48.472225],
            [11.508813, 48.4737],
            [11.506767, 48.472537],
            [11.505085, 48.474137],
            [11.497098, 48.473192],
            [11.493261, 48.468048],
            [11.486651, 48.470162],
            [11.476026, 48.470772],
            [11.476731, 48.471725],
            [11.46684, 48.474341],
            [11.458294, 48.464889],
            [11.447487, 48.466991],
            [11.435453, 48.46329],
            [11.434707, 48.461204],
            [11.438094, 48.460765],
            [11.437576, 48.452879],
            [11.43162, 48.454246],
            [11.428107, 48.452744],
            [11.427301, 48.449972],
            [11.423666, 48.45122],
            [11.41571, 48.446838]
          ]
        ]
      },
      "properties": {
        "id": "relation/396546",
        "name": "Reichertshausen",
        "roadSumKm": 133,
        "bikelaneSumKm": 14,
        "bikeSharePct": 10.526315789473683,
        "label": "Reichertshausen: 10.5 % Radinfra (an Straßen km)"
      }
    },
    {
      "type": "Feature",
      "geometry": {
        "type": "Polygon",
        "coordinates": [
          [
            [11.427209, 48.643562],
            [11.437679, 48.633459],
            [11.440771, 48.634183],
            [11.441679, 48.631299],
            [11.446332, 48.629673],
            [11.448559, 48.631275],
            [11.451783, 48.629295],
            [11.45555, 48.629937],
            [11.46701, 48.642671],
            [11.47097, 48.641647],
            [11.473895, 48.64419],
            [11.477379, 48.642609],
            [11.474292, 48.640196],
            [11.47823, 48.637419],
            [11.48877, 48.640957],
            [11.497197, 48.634933],
            [11.496425, 48.632681],
            [11.502137, 48.632611],
            [11.501186, 48.631246],
            [11.506897, 48.62929],
            [11.510781, 48.630594],
            [11.518326, 48.625419],
            [11.530429, 48.624042],
            [11.532285, 48.628367],
            [11.542074, 48.63083],
            [11.535005, 48.636132],
            [11.545437, 48.65047],
            [11.541817, 48.659099],
            [11.547004, 48.663681],
            [11.544625, 48.668874],
            [11.543876, 48.679672],
            [11.549643, 48.68044],
            [11.545655, 48.681544],
            [11.54502, 48.683255],
            [11.54735, 48.684427],
            [11.540291, 48.690615],
            [11.539661, 48.696745],
            [11.534187, 48.699244],
            [11.530273, 48.696921],
            [11.519552, 48.697847],
            [11.513564, 48.688111],
            [11.51349, 48.684714],
            [11.510865, 48.683785],
            [11.508416, 48.678575],
            [11.504948, 48.677803],
            [11.498421, 48.671603],
            [11.496256, 48.671813],
            [11.49534, 48.668417],
            [11.493686, 48.668457],
            [11.486534, 48.660584],
            [11.48235, 48.661685],
            [11.478059, 48.659585],
            [11.474339, 48.659863],
            [11.474986, 48.661392],
            [11.469951, 48.663744],
            [11.464912, 48.665157],
            [11.465586, 48.663422],
            [11.463918, 48.663441],
            [11.460011, 48.664287],
            [11.456699, 48.667264],
            [11.451672, 48.667602],
            [11.452388, 48.666376],
            [11.444222, 48.66875],
            [11.44422, 48.66401],
            [11.441226, 48.663975],
            [11.440283, 48.658989],
            [11.440655, 48.649422],
            [11.438169, 48.646455],
            [11.437222, 48.647886],
            [11.433616, 48.647746],
            [11.434079, 48.646013],
            [11.427209, 48.643562]
          ]
        ]
      },
      "properties": {
        "id": "relation/387305",
        "name": "Reichertshofen",
        "roadSumKm": 263,
        "bikelaneSumKm": 7,
        "bikeSharePct": 2.6615969581749046,
        "label": "Reichertshofen: 2.7 % Radinfra (an Straßen km)"
      }
    },
    {
      "type": "Feature",
      "geometry": {
        "type": "Polygon",
        "coordinates": [
          [
            [11.490211, 48.603386],
            [11.491476, 48.601771],
            [11.496535, 48.601894],
            [11.494073, 48.59943],
            [11.499547, 48.597056],
            [11.493233, 48.592344],
            [11.497348, 48.592154],
            [11.498507, 48.594261],
            [11.503461, 48.592832],
            [11.505128, 48.594952],
            [11.510267, 48.593667],
            [11.513175, 48.594897],
            [11.517995, 48.594242],
            [11.51795, 48.591998],
            [11.524846, 48.592468],
            [11.52479, 48.594051],
            [11.527161, 48.594536],
            [11.530312, 48.591688],
            [11.536094, 48.592172],
            [11.537773, 48.586241],
            [11.542161, 48.585805],
            [11.543623, 48.583714],
            [11.544366, 48.585562],
            [11.552699, 48.584817],
            [11.561135, 48.596162],
            [11.567885, 48.591533],
            [11.575282, 48.599771],
            [11.581468, 48.599149],
            [11.582629, 48.600787],
            [11.581373, 48.601529],
            [11.583957, 48.605965],
            [11.581988, 48.606433],
            [11.584941, 48.609286],
            [11.579375, 48.611236],
            [11.583361, 48.617202],
            [11.578025, 48.617363],
            [11.58108, 48.622053],
            [11.578288, 48.62549],
            [11.580591, 48.626142],
            [11.580519, 48.628891],
            [11.584055, 48.628272],
            [11.582066, 48.630775],
            [11.584101, 48.631311],
            [11.580717, 48.632541],
            [11.579528, 48.638978],
            [11.585349, 48.643604],
            [11.580111, 48.643953],
            [11.578607, 48.647093],
            [11.572575, 48.647261],
            [11.555225, 48.639838],
            [11.548338, 48.64481],
            [11.542357, 48.646257],
            [11.535005, 48.636132],
            [11.542074, 48.63083],
            [11.532285, 48.628367],
            [11.530429, 48.624042],
            [11.528371, 48.6239],
            [11.524765, 48.625396],
            [11.518326, 48.625419],
            [11.510781, 48.630594],
            [11.504447, 48.629748],
            [11.508754, 48.624842],
            [11.506586, 48.624682],
            [11.502527, 48.619628],
            [11.502992, 48.61343],
            [11.496818, 48.611574],
            [11.49907, 48.608564],
            [11.494172, 48.607656],
            [11.495007, 48.605586],
            [11.490532, 48.606235],
            [11.492433, 48.603975],
            [11.490211, 48.603386]
          ]
        ]
      },
      "properties": {
        "id": "relation/252230",
        "name": "Rohrbach an der Ilm",
        "roadSumKm": 177,
        "bikelaneSumKm": 10,
        "bikeSharePct": 5.649717514124294,
        "label": "Rohrbach an der Ilm: 5.6 % Radinfra (an Straßen km)"
      }
    },
    {
      "type": "Feature",
      "geometry": {
        "type": "Polygon",
        "coordinates": [
          [
            [11.383425, 48.535401],
            [11.388093, 48.534063],
            [11.386611, 48.53023],
            [11.390085, 48.52797],
            [11.388273, 48.512547],
            [11.391466, 48.509182],
            [11.387535, 48.509868],
            [11.387671, 48.508268],
            [11.390913, 48.507648],
            [11.392163, 48.505624],
            [11.398151, 48.506565],
            [11.402057, 48.501639],
            [11.404569, 48.502915],
            [11.403197, 48.501323],
            [11.405344, 48.501982],
            [11.402539, 48.500559],
            [11.405168, 48.497891],
            [11.404849, 48.495392],
            [11.39862, 48.492561],
            [11.402495, 48.486504],
            [11.407467, 48.484669],
            [11.407081, 48.480077],
            [11.409324, 48.477559],
            [11.407472, 48.470733],
            [11.41997, 48.462944],
            [11.423796, 48.462183],
            [11.426146, 48.463352],
            [11.432811, 48.460143],
            [11.435453, 48.46329],
            [11.442978, 48.466287],
            [11.444703, 48.465362],
            [11.449516, 48.467056],
            [11.45101, 48.465715],
            [11.454857, 48.465829],
            [11.454394, 48.464821],
            [11.458294, 48.464889],
            [11.465798, 48.473679],
            [11.464074, 48.475308],
            [11.456948, 48.476227],
            [11.455564, 48.480882],
            [11.45755, 48.485875],
            [11.462403, 48.490488],
            [11.469153, 48.491378],
            [11.472062, 48.493352],
            [11.471331, 48.494813],
            [11.48529, 48.495102],
            [11.479185, 48.501094],
            [11.482303, 48.502517],
            [11.482082, 48.504753],
            [11.486105, 48.503904],
            [11.488844, 48.505522],
            [11.485116, 48.506308],
            [11.482733, 48.509152],
            [11.479361, 48.508142],
            [11.476856, 48.510866],
            [11.477567, 48.513441],
            [11.475344, 48.513462],
            [11.47407, 48.517626],
            [11.4789, 48.518424],
            [11.478151, 48.52199],
            [11.474828, 48.521449],
            [11.471861, 48.524969],
            [11.470182, 48.523204],
            [11.464949, 48.522671],
            [11.459946, 48.526989],
            [11.459015, 48.530135],
            [11.457044, 48.529688],
            [11.458072, 48.52865],
            [11.453487, 48.527832],
            [11.452041, 48.524789],
            [11.44798, 48.524724],
            [11.443616, 48.527698],
            [11.441996, 48.527055],
            [11.439807, 48.529809],
            [11.434882, 48.529367],
            [11.431937, 48.533061],
            [11.421961, 48.530079],
            [11.412534, 48.532218],
            [11.409476, 48.5317],
            [11.409811, 48.533162],
            [11.405558, 48.535009],
            [11.401014, 48.530291],
            [11.39956, 48.531644],
            [11.402523, 48.534988],
            [11.397593, 48.534137],
            [11.397326, 48.536653],
            [11.399757, 48.537932],
            [11.397944, 48.539387],
            [11.394815, 48.538303],
            [11.39319, 48.535489],
            [11.38984, 48.535002],
            [11.389351, 48.536441],
            [11.386082, 48.534937],
            [11.383425, 48.535401]
          ]
        ]
      },
      "properties": {
        "id": "relation/396553",
        "name": "Scheyern",
        "roadSumKm": 182,
        "bikelaneSumKm": 18,
        "bikeSharePct": 9.89010989010989,
        "label": "Scheyern: 9.9 % Radinfra (an Straßen km)"
      }
    },
    {
      "type": "Feature",
      "geometry": {
        "type": "Polygon",
        "coordinates": [
          [
            [11.564304, 48.497722],
            [11.565564, 48.494742],
            [11.569841, 48.496438],
            [11.575225, 48.495712],
            [11.573596, 48.491775],
            [11.569976, 48.491226],
            [11.570046, 48.48991],
            [11.57666, 48.487399],
            [11.57389, 48.485729],
            [11.576182, 48.482429],
            [11.586121, 48.483228],
            [11.585919, 48.47892],
            [11.593637, 48.478619],
            [11.59493, 48.474897],
            [11.596917, 48.476717],
            [11.59829, 48.474759],
            [11.595678, 48.471793],
            [11.606058, 48.465348],
            [11.608379, 48.466169],
            [11.614195, 48.463125],
            [11.626035, 48.463113],
            [11.62255, 48.466413],
            [11.626634, 48.470076],
            [11.630855, 48.469768],
            [11.63178, 48.476189],
            [11.635779, 48.475541],
            [11.632882, 48.478988],
            [11.637721, 48.48041],
            [11.636789, 48.486665],
            [11.641071, 48.486116],
            [11.640231, 48.491195],
            [11.64278, 48.492964],
            [11.648832, 48.492141],
            [11.646428, 48.495602],
            [11.64089, 48.49642],
            [11.653488, 48.498952],
            [11.657003, 48.497167],
            [11.662861, 48.498538],
            [11.660038, 48.501646],
            [11.659454, 48.506476],
            [11.660761, 48.513036],
            [11.664284, 48.514825],
            [11.665601, 48.519826],
            [11.663971, 48.519234],
            [11.663997, 48.522058],
            [11.660374, 48.52299],
            [11.659441, 48.525668],
            [11.661324, 48.525353],
            [11.660263, 48.529244],
            [11.662475, 48.529303],
            [11.660154, 48.529511],
            [11.657785, 48.537138],
            [11.660294, 48.546152],
            [11.661698, 48.545921],
            [11.659362, 48.549337],
            [11.660214, 48.552127],
            [11.65876, 48.549583],
            [11.654283, 48.548423],
            [11.645449, 48.550082],
            [11.642834, 48.552527],
            [11.636926, 48.551343],
            [11.634457, 48.547957],
            [11.632352, 48.550255],
            [11.628793, 48.550614],
            [11.626511, 48.544559],
            [11.623253, 48.544402],
            [11.622376, 48.541508],
            [11.618273, 48.541483],
            [11.614408, 48.542084],
            [11.613471, 48.549441],
            [11.619718, 48.551479],
            [11.614665, 48.553025],
            [11.612949, 48.551184],
            [11.608362, 48.553324],
            [11.609723, 48.555139],
            [11.606857, 48.559888],
            [11.584553, 48.561265],
            [11.58302, 48.558251],
            [11.578006, 48.555333],
            [11.570468, 48.556796],
            [11.567434, 48.555245],
            [11.564585, 48.550592],
            [11.571981, 48.550663],
            [11.57178, 48.551749],
            [11.575225, 48.552086],
            [11.575553, 48.550519],
            [11.58066, 48.550852],
            [11.581067, 48.549801],
            [11.573437, 48.549259],
            [11.575329, 48.546868],
            [11.571599, 48.545396],
            [11.575929, 48.54503],
            [11.578306, 48.537667],
            [11.580415, 48.537937],
            [11.579703, 48.535623],
            [11.582104, 48.534062],
            [11.586315, 48.534178],
            [11.588223, 48.529214],
            [11.583609, 48.529113],
            [11.575397, 48.521764],
            [11.572893, 48.518347],
            [11.575827, 48.514602],
            [11.56633, 48.515769],
            [11.565494, 48.513625],
            [11.570167, 48.510776],
            [11.564542, 48.51104],
            [11.567154, 48.509766],
            [11.567646, 48.506704],
            [11.564544, 48.503501],
            [11.570637, 48.499805],
            [11.564304, 48.497722]
          ]
        ]
      },
      "properties": {
        "id": "relation/396557",
        "name": "Schweitenkirchen",
        "roadSumKm": 318,
        "bikelaneSumKm": 5,
        "bikeSharePct": 1.5723270440251573,
        "label": "Schweitenkirchen: 1.6 % Radinfra (an Straßen km)"
      }
    },
    {
      "type": "Feature",
      "geometry": {
        "type": "Polygon",
        "coordinates": [
          [
            [11.55147, 48.750631],
            [11.555218, 48.7473],
            [11.559331, 48.747477],
            [11.558533, 48.743968],
            [11.561556, 48.743649],
            [11.562832, 48.745027],
            [11.56006, 48.740764],
            [11.564392, 48.740004],
            [11.568838, 48.741592],
            [11.571066, 48.737973],
            [11.577067, 48.739409],
            [11.580492, 48.742994],
            [11.585789, 48.742269],
            [11.588265, 48.739495],
            [11.583712, 48.735298],
            [11.589038, 48.736214],
            [11.588962, 48.734908],
            [11.591108, 48.735152],
            [11.593687, 48.732152],
            [11.599047, 48.730273],
            [11.615516, 48.735835],
            [11.619051, 48.740177],
            [11.616562, 48.740448],
            [11.617572, 48.742229],
            [11.626245, 48.747038],
            [11.633197, 48.748974],
            [11.63387, 48.746639],
            [11.638511, 48.746342],
            [11.636007, 48.744271],
            [11.636767, 48.738974],
            [11.641079, 48.731503],
            [11.651656, 48.727548],
            [11.662394, 48.721224],
            [11.668924, 48.720201],
            [11.67038, 48.723684],
            [11.657144, 48.729586],
            [11.65553, 48.742692],
            [11.650462, 48.743267],
            [11.652107, 48.745695],
            [11.647958, 48.744874],
            [11.64935, 48.746429],
            [11.643802, 48.752578],
            [11.644007, 48.755009],
            [11.635958, 48.758313],
            [11.639852, 48.760972],
            [11.638983, 48.763916],
            [11.641624, 48.765124],
            [11.639876, 48.770082],
            [11.64815, 48.770306],
            [11.650592, 48.775821],
            [11.659511, 48.779387],
            [11.67032, 48.778867],
            [11.666633, 48.783104],
            [11.670559, 48.786588],
            [11.654323, 48.784944],
            [11.640825, 48.795429],
            [11.639793, 48.796895],
            [11.646107, 48.797182],
            [11.648608, 48.802532],
            [11.644302, 48.808083],
            [11.644368, 48.812044],
            [11.616654, 48.811281],
            [11.616294, 48.813986],
            [11.603126, 48.813696],
            [11.605064, 48.80828],
            [11.601897, 48.807691],
            [11.60361, 48.803682],
            [11.59952, 48.802453],
            [11.600115, 48.798827],
            [11.594595, 48.79883],
            [11.59471, 48.796499],
            [11.591028, 48.796423],
            [11.586114, 48.789113],
            [11.581748, 48.78913],
            [11.582072, 48.787269],
            [11.573703, 48.786023],
            [11.574447, 48.78479],
            [11.571812, 48.783046],
            [11.575178, 48.77725],
            [11.573668, 48.775386],
            [11.574873, 48.77234],
            [11.567646, 48.767156],
            [11.56591, 48.76113],
            [11.555604, 48.759478],
            [11.560002, 48.75385],
            [11.56462, 48.753824],
            [11.566186, 48.749664],
            [11.558713, 48.748898],
            [11.55438, 48.752542],
            [11.55147, 48.750631]
          ]
        ]
      },
      "properties": {
        "id": "relation/380987",
        "name": "Vohburg an der Donau",
        "roadSumKm": 251,
        "bikelaneSumKm": 23,
        "bikeSharePct": 9.163346613545817,
        "label": "Vohburg an der Donau: 9.2 % Radinfra (an Straßen km)"
      }
    },
    {
      "type": "Feature",
      "geometry": {
        "type": "Polygon",
        "coordinates": [
          [
            [11.546868, 48.581082],
            [11.559923, 48.575642],
            [11.559359, 48.574753],
            [11.563349, 48.574979],
            [11.565171, 48.573292],
            [11.56814, 48.57518],
            [11.566133, 48.572729],
            [11.574331, 48.569101],
            [11.573604, 48.567389],
            [11.576157, 48.566649],
            [11.576908, 48.568108],
            [11.579861, 48.565124],
            [11.584976, 48.564733],
            [11.584302, 48.561174],
            [11.606857, 48.559888],
            [11.609723, 48.555139],
            [11.608362, 48.553324],
            [11.612949, 48.551184],
            [11.614665, 48.553025],
            [11.619718, 48.551479],
            [11.613471, 48.549441],
            [11.614677, 48.541915],
            [11.622376, 48.541508],
            [11.623253, 48.544402],
            [11.626511, 48.544559],
            [11.628793, 48.550614],
            [11.632352, 48.550255],
            [11.634457, 48.547957],
            [11.636926, 48.551343],
            [11.642834, 48.552527],
            [11.645449, 48.550082],
            [11.654066, 48.548419],
            [11.65876, 48.549583],
            [11.659841, 48.552236],
            [11.668988, 48.551437],
            [11.668173, 48.554211],
            [11.660902, 48.555022],
            [11.658, 48.562688],
            [11.663432, 48.564037],
            [11.666093, 48.567363],
            [11.676465, 48.564649],
            [11.676933, 48.568166],
            [11.670669, 48.567745],
            [11.671351, 48.571111],
            [11.673832, 48.57074],
            [11.675469, 48.574827],
            [11.678973, 48.574757],
            [11.682149, 48.578066],
            [11.683268, 48.576737],
            [11.68867, 48.578742],
            [11.692527, 48.576974],
            [11.699309, 48.583724],
            [11.703359, 48.583265],
            [11.707683, 48.586934],
            [11.702592, 48.587926],
            [11.7015, 48.589665],
            [11.701852, 48.592744],
            [11.707294, 48.593787],
            [11.707622, 48.596678],
            [11.70098, 48.60183],
            [11.701908, 48.605061],
            [11.697787, 48.605183],
            [11.69829, 48.609802],
            [11.696612, 48.611514],
            [11.706776, 48.616624],
            [11.693664, 48.618],
            [11.692163, 48.6202],
            [11.697781, 48.620948],
            [11.693345, 48.623617],
            [11.697382, 48.626274],
            [11.691865, 48.630266],
            [11.683161, 48.632314],
            [11.672087, 48.632274],
            [11.666701, 48.637874],
            [11.655362, 48.638855],
            [11.655056, 48.643667],
            [11.648578, 48.643529],
            [11.65145, 48.64715],
            [11.648763, 48.655146],
            [11.638625, 48.656444],
            [11.636092, 48.659858],
            [11.627835, 48.663304],
            [11.626692, 48.659502],
            [11.60957, 48.66232],
            [11.611275, 48.664397],
            [11.609082, 48.665903],
            [11.602223, 48.660763],
            [11.595913, 48.658817],
            [11.593806, 48.654764],
            [11.592003, 48.655335],
            [11.588984, 48.653317],
            [11.585656, 48.643995],
            [11.579655, 48.639544],
            [11.580717, 48.632541],
            [11.584101, 48.631311],
            [11.582066, 48.630775],
            [11.583929, 48.628131],
            [11.580519, 48.628891],
            [11.580591, 48.626142],
            [11.578288, 48.62549],
            [11.58108, 48.622053],
            [11.578025, 48.617363],
            [11.583361, 48.617202],
            [11.579375, 48.611236],
            [11.584941, 48.609286],
            [11.581988, 48.606433],
            [11.583957, 48.605965],
            [11.582546, 48.604485],
            [11.583886, 48.603912],
            [11.581468, 48.599149],
            [11.575282, 48.599771],
            [11.567885, 48.591533],
            [11.561135, 48.596162],
            [11.554445, 48.586453],
            [11.552699, 48.584817],
            [11.549711, 48.58394],
            [11.549034, 48.584852],
            [11.549464, 48.581861],
            [11.546868, 48.581082]
          ]
        ]
      },
      "properties": {
        "id": "relation/252182",
        "name": "Wolnzach",
        "roadSumKm": 394,
        "bikelaneSumKm": 21,
        "bikeSharePct": 5.32994923857868,
        "label": "Wolnzach: 5.3 % Radinfra (an Straßen km)"
      }
    }
  ]
}
